[{"OBJECT_NAME":"HST","OBJECT_ID":"1990-037B","EPOCH":"2026-03-09T03:50:04.164288","MEAN_MOTION":15.29473555,"ECCENTRICITY":0.00018372,"INCLINATION":28.4717,"RA_OF_ASC_NODE":43.6133,"ARG_OF_PERICENTER":120.9992,"MEAN_ANOMALY":239.0785,"EPHEMERIS_TYPE":0,"CLASSIFICATION_TYPE":"U","NORAD_CAT_ID":20580,"ELEMENT_SET_NO":999,"REV_AT_EPOCH":77323,"BSTAR":0.0003002261,"MEAN_MOTION_DOT":9.063e-5,"MEAN_MOTION_DDOT":0},{"OBJECT_NAME":"STARLINK-32239","OBJECT_ID":"2024-204U","EPOCH":"2026-03-09T13:28:20.245152","MEAN_MOTION":15.3018969,"ECCENTRICITY":0.000122,"INCLINATION":53.1597,"RA_OF_ASC_NODE":127.9791,"ARG_OF_PERICENTER":70.5548,"MEAN_ANOMALY":289.5585,"EPHEMERIS_TYPE":0,"CLASSIFICATION_TYPE":"U","NORAD_CAT_ID":61892,"ELEMENT_SET_NO":999,"REV_AT_EPOCH":7507,"BSTAR":1.2187e-5,"MEAN_MOTION_DOT":2.0e-8,"MEAN_MOTION_DDOT":0}]
